[{"OBJECT_NAME":"STARLINK-32958","OBJECT_ID":"2025-075R","EPOCH":"2026-03-09T22:13:13.515168","MEAN_MOTION":15.2759075,"ECCENTRICITY":4.734e-5,"INCLINATION":42.993,"RA_OF_ASC_NODE":269.2857,"ARG_OF_PERICENTER":184.2801,"MEAN_ANOMALY":175.8047,"EPHEMERIS_TYPE":0,"CLASSIFICATION_TYPE":"U","NORAD_CAT_ID":63563,"ELEMENT_SET_NO":999,"REV_AT_EPOCH":5196,"BSTAR":0.0010360954,"MEAN_MOTION_DOT":0.00028368,"MEAN_MOTION_DDOT":0},{"OBJECT_NAME":"CZ-6A DEB","OBJECT_ID":"2022-151NB","EPOCH":"2026-03-09T18:26:17.609568","MEAN_MOTION":15.22372787,"ECCENTRICITY":0.00267955,"INCLINATION":98.6489,"RA_OF_ASC_NODE":154.0342,"ARG_OF_PERICENTER":180.4296,"MEAN_ANOMALY":179.6918,"EPHEMERIS_TYPE":0,"CLASSIFICATION_TYPE":"U","NORAD_CAT_ID":54601,"ELEMENT_SET_NO":999,"REV_AT_EPOCH":17694,"BSTAR":0.011449911,"MEAN_MOTION_DOT":0.00276508,"MEAN_MOTION_DDOT":0}]
